    argperigee => '114.7123',
    orbit => 16466,
    mm2 => 0,
    inclination => '54.9859',
    meanmotion => '15.53528739',
    elset => 937,
    meananomaly => '246.6737',
    eccentricity => '0.0121693',
    mm1 => '9.766e-05',
    bstar => '0.00011583',
    id => 40654
  },
  'NOAA-10' => {
    id => 16969,
    bstar => '4.6675e-05',
    mm1 => '6.9e-07',
    meananomaly => '180.7948',
    eccentricity => '0.0012479',
    elset => 80,
    meanmotion => '14.272848',
    inclination => '98.7647',
    mm2 => 0,
    orbit => 794,
    argperigee => '179.3258',
    raan => '44.7965',
    number => 86073,
    epoch => '6033.47748887'
  },
  'NOAA-19' => {
    inclination => '99.1958',
    mm2 => 0,
    meananomaly => '213.2605',
    eccentricity => '0.0014561',
    elset => 999,
    meanmotion => '14.12409481',
    mm1 => '5.8e-07',
    id => 33591,
    bstar => '5.6951e-05',
    epoch => '20142.88528905',
    number => 9005,
    orbit => 58138,
    argperigee => '146.9479',
    raan => '147.5421'
  },
  'FIREBIRD-FU3' => {
    orbit => 29325,
    argperigee => '43.5677',
    raan => '197.5489',
    epoch => '20142.80017904',
    number => 15003,
    mm1 => '1.736e-05',
    bstar => '6.9865e-05',
    id => 40377,
    inclination => '99.0965',
    mm2 => 0,
    meananomaly => '317.5317',
    eccentricity => '0.0124678',
    elset => 999,
    meanmotion => '15.19996719'
  },
  'LAPAN-A3' => {
    epoch => '20142.87760028',
    number => 16040,
    orbit => 21710,
    raan => '197.2513',
    argperigee => '299.5884',
    inclination => '97.3113',
    mm2 => 0,
    eccentricity => '0.0011951',
    meananomaly => '175.0763',
    meanmotion => '15.1983278',
    elset => 999,
    mm1 => '1.24e-06',
    bstar => '8.9084e-06',
    id => 41603
  },
  AAUSAT4 => {
    bstar => '2.8406e-05',
    id => 41460,
    mm1 => '4.88e-06',
    eccentricity => '0.0152638',
    meananomaly => '67.9694',
    meanmotion => '15.08626054',
    elset => 999,
    inclination => '98.0947',
    mm2 => 0,
    orbit => 22363,
    argperigee => '290.5188',
    raan => '253.7125',
    number => 16025,
    epoch => '20142.87026116'
  },
  'FLORIPASAT-1' => {
    epoch => '20142.85781599',
    number => 19093,
    raan => '219.208',
    argperigee => '131.2067',
    orbit => 2276,
    mm2 => 0,
    inclination => '97.958',
    elset => 999,
    meanmotion => '14.82021183',
    meananomaly => '229.0513',
    eccentricity => '0.0015877',
    mm1 => '1.92e-06',
    id => 44885,
    bstar => '3.0943e-05'
  },
  'LO-19' => {
    elset => 999,
    meanmotion => '14.32952756',
    eccentricity => '0.0010808',
    meananomaly => '129.9218',
    mm2 => 0,
    inclination => '98.6906',
    bstar => '1.0437e-05',
    id => 20442,
    mm1 => '-1.6e-07',
    number => 90005,
    epoch => '20142.83883093',
    raan => '90',
    argperigee => '230.1016',
    orbit => 58474
  },
  'TW-1A' => {
    meananomaly => '197.1306',
    eccentricity => '0.0008647',
    meanmotion => '15.42486819',
    elset => 999,
    inclination => '97.1114',
    mm2 => 0,
    bstar => '5.1607e-05',
    id => 40928,
    mm1 => '2.155e-05',
    number => 15051,
    epoch => '20142.87619419',
    orbit => 26127,
    argperigee => '286.8887',
    raan => '171.354'
  },
  ANTELSAT => {
    orbit => 31793,
    argperigee => '85.3661',
    raan => '359.6349',
    epoch => '20142.66013228',
    number => 14033,
    mm1 => '1.69e-06',
    id => 40034,
    bstar => '3.2112e-05',
    inclination => '97.7178',
    mm2 => 0,
    meananomaly => '275.4415',
    eccentricity => '0.0060154',
    meanmotion => '14.74249843',
    elset => 999
  },
  'XW-2E' => {
    mm1 => '8.05e-06',
    id => 40909,
    bstar => '4.2348e-05',
    mm2 => 0,
    inclination => '97.464',
    meanmotion => '15.18389989',
    elset => 999,
    meananomaly => '329.805',
    eccentricity => '0.0015155',
    raan => '147.7964',
    argperigee => '94.1144',
    orbit => 25850,
    epoch => '20142.91578911',
    number => 15049
  },
  'FO-99' => {
    meanmotion => '15.24330477',
    elset => 999,
    meananomaly => '37.5642',
    eccentricity => '0.0022862',
    mm2 => 0,
    inclination => '97.2285',
    bstar => '4.078e-05',
    id => 43937,
    mm1 => '9.34e-06',
    number => 19003,
    epoch => '20142.77524654',
    raan => '194.6979',
    argperigee => '322.3997',
    orbit => 7457
  },
  'DO-64' => {
    epoch => '20142.72118461',
    number => 8021,
    orbit => 65778,
    raan => '186.4554',
    argperigee => '53.6707',
    inclination => '97.4202',
    mm2 => 0,
    meananomaly => '306.5752',
    eccentricity => '0.0013351',
    meanmotion => '15.07683165',
    elset => 999,
    mm1 => '1.127e-05',
    id => 32789,
    bstar => '7.7754e-05'
  },
  'MOVE-IIB' => {
    meanmotion => '15.12271583',
    elset => 999,
    eccentricity => '0.0024047',
    meananomaly => '143.7425',
    mm2 => 0,
    inclination => '97.5343',
    id => 44398,
    bstar => '4.8437e-05',
    mm1 => '7.77e-06',
    number => 19038,
    epoch => '20142.88733007',
    raan => '104.4614',
    argperigee => '216.2178',
    orbit => 4856
  },
  'NO-103' => {
    raan => '190.4667',
    argperigee => '34.8776',
    orbit => 4982,
    number => 19036,
    epoch => '20142.4721927',
    id => 44355,
    bstar => '0.00015541',
    mm1 => '0.00011212',
    meanmotion => '15.0822014',
    elset => 999,
    meananomaly => '327.397',
    eccentricity => '0.0345785',
    mm2 => 0,
    inclination => '28.5283'
  },
  'PROX-1' => {
    orbit => 4823,
    argperigee => '222.3',
    raan => '280.3032',
    number => 19036,
    epoch => '20142.68860311',
    bstar => '0.00014686',
    id => 44339,
    mm1 => '8.28e-06',
    eccentricity => '0.0010659',
    meananomaly => '137.6692',
    meanmotion => '14.52981216',
    elset => 999,
    inclination => '24.0045',
    mm2 => 0
  },
  'ITASAT-1' => {
    eccentricity => '0.0013664',
    meananomaly => '79.3501',
    meanmotion => '14.95314016',
    elset => 999,
    inclination => '97.7081',
    mm2 => 0,
    bstar => '4.804e-05',
    id => 43786,
    mm1 => '4.72e-06',
    number => 18099,
    epoch => '20142.7387717',
    orbit => 7994,
    raan => '214.9833',
    argperigee => '280.6181'
  },
  'XO-53' => {
    meanmotion => '14.59434531',
    elset => 313,
    meananomaly => '128.7581',
    eccentricity => '0.0016659',
    mm2 => 0,
    inclination => '98.1805',
    id => 28894,
    bstar => '3.4578e-05',
    mm1 => '1.17e-06',
    number => 5043,
    epoch => '6033.73018651',
    argperigee => '231.2133',
    raan => '294.0696',
    orbit => 1436
  },
  'CAS-4A' => {
    bstar => '8.704e-06',
    id => 42761,
    mm1 => '-7.9e-07',
    eccentricity => '0.0012197',
    meananomaly => '270.1695',
    meanmotion => '15.0989242',
    elset => 999,
    inclination => '43.0182',
    mm2 => 0,
    orbit => 16190,
    argperigee => '228.4536',
    raan => '174.0165',
    number => 17034,
    epoch => '20142.58119012'
  },
  SPARROW => {
    inclination => '97.7062',
    mm2 => 0,
    meananomaly => '19.9548',
    eccentricity => '0.001212',
    meanmotion => '14.96519155',
    elset => 999,
    mm1 => '-1.68e-06',
    id => 43881,
    bstar => '-9.6395e-06',
    epoch => '20142.84937735',
    number => 18111,
    orbit => 7651,
    raan => '51.029',
    argperigee => '340.1199'
  },
  SONATE => {
    meananomaly => '145.2501',
    eccentricity => '0.0024191',
    elset => 999,
    meanmotion => '15.1193253',
    inclination => '97.5379',
    mm2 => 0,
    id => 44400,
    bstar => '2.4988e-05',
    mm1 => '3.65e-06',
    number => 19038,
    epoch => '20142.84938025',
    orbit => 4855,
    raan => '104.4413',
    argperigee => '214.7151'
  },
  'DUCHIFAT-3' => {
    meananomaly => '143.0615',
    eccentricity => '0.000803',
    elset => 999,
    meanmotion => '14.99052276',
    inclination => '36.9661',
    mm2 => 0,
    id => 44854,
    bstar => '2.6438e-05',
    mm1 => '2.48e-06',
    number => 19089,
    epoch => '20142.71787342',
    orbit => 2428,
    raan => '256.3507',
    argperigee => '216.9569'
  },
  JUGNU => {
    epoch => '20142.93571116',
    number => 11058,
    orbit => 44503,
    argperigee => '96.2946',
    raan => '83.5747',
    inclination => '19.9613',
    mm2 => 0,
    eccentricity => '0.0019122',
    meananomaly => '324.5302',
    meanmotion => '14.12680192',
    elset => 999,
    mm1 => '2.96e-06',
    bstar => '1.5868e-05',
    id => 37839
  },
  'AO-10' => {
    meanmotion => '2.05869523',
    elset => 255,
    eccentricity => '0.6031734',
    meananomaly => '32.5117',
    mm2 => 0,
    inclination => '27.4692',
    id => 14129,
    bstar => '0.0001',
    mm1 => '-3.36e-06',
    number => 83058,
    epoch => '6031.81300958',
    raan => '351.3227',
    argperigee => '257.9867',
    orbit => 17024
  },
  'MO-105' => {
    bstar => '0.00028353',
    id => 44832,
    mm1 => '0.00046987',
    elset => 999,
    meanmotion => '15.77069958',
    meananomaly => '18.0229',
    eccentricity => '0.0025074',
    mm2 => 0,
    inclination => '96.9789',
    argperigee => '342.0149',
    raan => '11.7668',
    orbit => 2624,
    number => 19084,
    epoch => '20142.70071519'
  },
  UGUISU => {
    bstar => '0.00011476',
    id => 44330,
    mm1 => '8.07e-05',
    elset => 999,
    meanmotion => '15.57356742',
    eccentricity => '0.0004801',
    meananomaly => '93.446',
    mm2 => 0,
    inclination => '51.6381',
    raan => '107.3541',
    argperigee => '266.5982',
    orbit => 5284,
    number => 98067,
    epoch => '20142.90029809'
  },
  SWAYAM => {
    raan => '202.6135',
    argperigee => '283.2312',
    orbit => 21733,
    number => 16040,
    epoch => '20142.61238819',
    bstar => '4.8594e-05',
    id => 41607,
    mm1 => '1.114e-05',
    meanmotion => '15.24173721',
    elset => 999,
    meananomaly => '76.766',
    eccentricity => '0.0011342',
    mm2 => 0,
    inclination => '97.3192'
  },
  'EO-79' => {
    orbit => 30650,
    argperigee => '357.1289',
    raan => '328.8938',
